     2.11           N: GPS NAV DATA                         RINEX VERSION / TYPE
GNSS-SDR            gaudima             10-JAN-19 12:33     PGM / RUN BY / DATE 
GPS NAVIGATION MESSAGE FILE GENERATED BY GNSS-SDR           COMMENT             
GNSS-SDR VERSION 0.0.10                                     COMMENT             
See https://gnss-sdr.org                                    COMMENT             
     .0000D+00   .0000D+00   .0000D+00   .0000D+00          ION ALPHA           
     .0000D+00   .0000D+00   .0000D+00   .0000D+00          ION BETA            
     .000000000000D+00  .000000000000D+00        0     1024 DELTA-UTC: A0,A1,T,W
     0                                                      LEAP SECONDS        
                                                            END OF HEADER       
18 17 10 16 10  0  0.0  .631419476122D-03  .682121026330D-12  .000000000000D+00 
     .680000000000D+02 -.653750000000D+02  .493591988659D-08 -.250930191788D+01 
    -.336952507496D-05  .181357538095D-01  .108424574137D-04  .515363845444D+04 
     .122400000000D+06  .201165676117D-06  .225373340491D+01 -.335276126862D-07 
     .926080988339D+00  .148968750000D+03 -.177726329790D+01 -.790532928870D-08 
    -.230366738556D-09  .100000000000D+01  .197100000000D+04  .100000000000D+01 
     .000000000000D+00  .000000000000D+00 -.111758708954D-07  .680000000000D+02 
     .120378000000D+06  .400000000000D+01                                       
21 17 10 16 10  0  0.0 -.470714177936D-03  .329691829393D-11  .000000000000D+00 
     .700000000000D+02 -.304062500000D+02  .535236580466D-08 -.160637891250D+01 
    -.116415321827D-05  .240149042802D-01  .309385359287D-05  .515358133888D+04 
     .122400000000D+06  .191852450371D-06  .121354286655D+01  .558793544769D-06 
     .940895216565D+00  .305468750000D+03 -.163273493824D+01 -.858500045687D-08 
    -.208580116771D-09  .100000000000D+01  .197100000000D+04  .100000000000D+01 
     .000000000000D+00  .000000000000D+00 -.977888703346D-08  .700000000000D+02 
     .120378000000D+06  .400000000000D+01                                       
 8 17 10 16 10  0  0.0 -.771880149841D-04 -.136424205266D-11  .000000000000D+00 
     .660000000000D+02  .810000000000D+02  .453983195937D-08  .281286286285D+01 
     .429153442383D-05  .271816016175D-02  .813975930214D-05  .515370475388D+04 
     .122400000000D+06  .353902578354D-07  .197892800927D+00  .931322574615D-07 
     .968085567895D+00  .225000000000D+03 -.637058442784D+00 -.812212403335D-08 
     .478234206089D-09  .100000000000D+01  .197100000000D+04  .100000000000D+01 
     .000000000000D+00  .000000000000D+00  .558793544769D-08  .660000000000D+02 
     .120378000000D+06  .400000000000D+01                                       
10 17 10 16 10  0  0.0  .898884609342D-04  .875388650456D-11  .000000000000D+00 
     .260000000000D+02 -.583125000000D+02  .419767485001D-08 -.190982538412D+01 
    -.303052365780D-05  .283398583997D-02  .120233744383D-04  .515367639923D+04 
     .122400000000D+06 -.745058059692D-07  .230095043180D+01 -.186264514923D-07 
     .960460734999D+00  .147531250000D+03 -.287506053514D+01 -.781461122421D-08 
    -.250010413937D-09  .100000000000D+01  .197100000000D+04  .100000000000D+01 
     .000000000000D+00  .000000000000D+00  .186264514923D-08  .260000000000D+02 
     .120378000000D+06  .400000000000D+01                                       
11 17 10 16 10  0  0.0 -.721546355635D-03 -.204636307899D-11  .000000000000D+00 
     .250000000000D+02  .250625000000D+02  .655634452664D-08 -.532767030468D+00 
     .142306089401D-05  .170336165465D-01  .299327075481D-05  .515372758675D+04 
     .122400000000D+06 -.230967998505D-06  .849389633653D+00  .260770320892D-07 
     .902410300874D+00  .292093750000D+03  .170777637295D+01 -.959932842199D-08 
     .248938940735D-09  .100000000000D+01  .197100000000D+04  .100000000000D+01 
     .000000000000D+00  .000000000000D+00 -.121071934700D-07  .250000000000D+02 
     .120378000000D+06  .400000000000D+01                                       
15 17 10 16  9 59 44.0 -.356648117304D-03 -.227373675443D-12  .000000000000D+00 
     .270000000000D+02  .704687500000D+02  .517521556850D-08  .144773542536D+01 
     .377930700779D-05  .976119295228D-02  .965967774391D-05  .515363608360D+04 
     .122384000000D+06 -.145286321640D-06 -.300891493101D+01  .912696123123D-07 
     .929206376764D+00  .179406250000D+03  .616311312251D+00 -.848606776450D-08 
     .288583449230D-09  .100000000000D+01  .197100000000D+04  .100000000000D+01 
     .000000000000D+00  .000000000000D+00 -.107102096081D-07  .270000000000D+02 
     .120378000000D+06  .400000000000D+01                                       
18 17 10 16 10  0  0.0  .631419476122D-03  .682121026330D-12  .000000000000D+00 
     .680000000000D+02 -.653750000000D+02  .493591988659D-08 -.250930191788D+01 
    -.336952507496D-05  .181357538095D-01  .108424574137D-04  .515363845444D+04 
     .122400000000D+06  .201165676117D-06  .225373340491D+01 -.335276126862D-07 
     .926080988339D+00  .148968750000D+03 -.177726329790D+01 -.790532928870D-08 
    -.230366738556D-09  .100000000000D+01  .197100000000D+04  .100000000000D+01 
     .000000000000D+00  .000000000000D+00 -.111758708954D-07  .680000000000D+02 
     .120378000000D+06  .400000000000D+01                                       
21 17 10 16 10  0  0.0 -.470714177936D-03  .329691829393D-11  .000000000000D+00 
     .700000000000D+02 -.304062500000D+02  .535236580466D-08 -.160637891250D+01 
    -.116415321827D-05  .240149042802D-01  .309385359287D-05  .515358133888D+04 
     .122400000000D+06  .191852450371D-06  .121354286655D+01  .558793544769D-06 
     .940895216565D+00  .305468750000D+03 -.163273493824D+01 -.858500045687D-08 
    -.208580116771D-09  .100000000000D+01  .197100000000D+04  .100000000000D+01 
     .000000000000D+00  .000000000000D+00 -.977888703346D-08  .700000000000D+02 
     .120378000000D+06  .400000000000D+01                                       
